start=new Date('2021-11-26T00:00:00.000Z').valueOf();
sats=[{"ECCENTRICITY":"0.00011530","REF_FRAME":"TEME","OBJECT_NAME":"STARLINK-1826","FILE":"3224009","BSTAR":"0.00001038000000","ARG_OF_PERICENTER":"77.7506","DECAY_DATE":null,"MEAN_MOTION_DOT":"-0.00000127","REV_AT_EPOCH":"6206","TLE_LINE1":"1 46723U 20073BF  21329.58232998 -.00000127  00000-0  10380-4 0  9994","MEAN_MOTION_DDOT":"0.0000000000000","RA_OF_ASC_NODE":"42.6636","RCS_SIZE":"LARGE","ELEMENT_SET_NO":"999","TLE_LINE2":"2 46723  53.0574  42.6636 0001153  77.7506 282.3612 15.06392925 62067","EPHEMERIS_TYPE":"0","COUNTRY_CODE":"US","PERIAPSIS":"546.437","APOAPSIS":"548.034","SITE":"AFETR","SEMIMAJOR_AXIS":"6925.370","OBJECT_ID":"2020-073BF","OBJECT_TYPE":"PAYLOAD","MEAN_ANOMALY":"282.3612","MEAN_MOTION":"15.06392925","CENTER_NAME":"EARTH","NORAD_CAT_ID":"46723","TIME_SYSTEM":"UTC","LAUNCH_DATE":"2020-10-18","MEAN_ELEMENT_THEORY":"SGP4","EPOCH":"2021-11-25T13:58:33.310272","CLASSIFICATION_TYPE":"U","INCLINATION":"53.0574","GP_ID":"190469187","PERIOD":"95.593"},{"ARG_OF_PERICENTER":"85.9891","FILE":"3224126","BSTAR":"0.00001738800000","REF_FRAME":"TEME","OBJECT_NAME":"STARLINK-1828","ECCENTRICITY":"0.00012790","MEAN_MOTION_DDOT":"0.0000000000000","ELEMENT_SET_NO":"999","RCS_SIZE":"LARGE","RA_OF_ASC_NODE":"82.0366","TLE_LINE2":"2 46725  53.0552  82.0366 0001279  85.9891 274.1244 15.06398049 61040","TLE_LINE1":"1 46725U 20073BH  21329.71869922 -.00000022  00000-0  17388-4 0  9993","REV_AT_EPOCH":"6104","MEAN_MOTION_DOT":"-0.00000022","DECAY_DATE":null,"APOAPSIS":"548.105","SEMIMAJOR_AXIS":"6925.355","SITE":"AFETR","PERIAPSIS":"546.334","EPHEMERIS_TYPE":"0","COUNTRY_CODE":"US","CLASSIFICATION_TYPE":"U","INCLINATION":"53.0552","PERIOD":"95.592","GP_ID":"190494076","NORAD_CAT_ID":"46725","TIME_SYSTEM":"UTC","MEAN_ELEMENT_THEORY":"SGP4","LAUNCH_DATE":"2020-10-18","EPOCH":"2021-11-25T17:14:55.612608","MEAN_ANOMALY":"274.1244","MEAN_MOTION":"15.06398049","CENTER_NAME":"EARTH","OBJECT_ID":"2020-073BH","OBJECT_TYPE":"PAYLOAD"},{"FILE":"3224126","BSTAR":"-0.00000742130000","ARG_OF_PERICENTER":"36.9802","ECCENTRICITY":"0.00071470","REF_FRAME":"TEME","OBJECT_NAME":"STARLINK-1829","TLE_LINE1":"1 46726U 20073BJ  21329.67770538 -.00000395  00000-0 -74213-5 0  9998","MEAN_MOTION_DDOT":"0.0000000000000","TLE_LINE2":"2 46726  53.0566  67.2309 0007147  36.9802 323.1679 15.06396204 61246","RCS_SIZE":"LARGE","RA_OF_ASC_NODE":"67.2309","ELEMENT_SET_NO":"999","DECAY_DATE":null,"MEAN_MOTION_DOT":"-0.00000395","REV_AT_EPOCH":"6124","SITE":"AFETR","SEMIMAJOR_AXIS":"6925.360","APOAPSIS":"552.175","EPHEMERIS_TYPE":"0","COUNTRY_CODE":"US","PERIAPSIS":"542.276","TIME_SYSTEM":"UTC","NORAD_CAT_ID":"46726","EPOCH":"2021-11-25T16:15:53.744832","LAUNCH_DATE":"2020-10-18","MEAN_ELEMENT_THEORY":"SGP4","CLASSIFICATION_TYPE":"U","GP_ID":"190492824","PERIOD":"95.592","INCLINATION":"53.0566","OBJECT_TYPE":"PAYLOAD","OBJECT_ID":"2020-073BJ","MEAN_MOTION":"15.06396204","MEAN_ANOMALY":"323.1679","CENTER_NAME":"EARTH"},{"TLE_LINE1":"1 46727U 20073BK  21329.63392967 -.00000157  00000-0  83753-5 0  9995","TLE_LINE2":"2 46727  53.0549  42.4192 0001276  71.0296 289.0831 15.06394254 61598","ELEMENT_SET_NO":"999","RCS_SIZE":"LARGE","RA_OF_ASC_NODE":"42.4192","MEAN_MOTION_DDOT":"0.0000000000000","DECAY_DATE":null,"MEAN_MOTION_DOT":"-0.00000157","REV_AT_EPOCH":"6159","BSTAR":"0.00000837530000","FILE":"3224126","ARG_OF_PERICENTER":"71.0296","ECCENTRICITY":"0.00012760","OBJECT_NAME":"STARLINK-1830","REF_FRAME":"TEME","EPOCH":"2021-11-25T15:12:51.523488","MEAN_ELEMENT_THEORY":"SGP4","LAUNCH_DATE":"2020-10-18","TIME_SYSTEM":"UTC","NORAD_CAT_ID":"46727","PERIOD":"95.593","GP_ID":"190493074","INCLINATION":"53.0549","CLASSIFICATION_TYPE":"U","OBJECT_ID":"2020-073BK","OBJECT_TYPE":"PAYLOAD","CENTER_NAME":"EARTH","MEAN_MOTION":"15.06394254","MEAN_ANOMALY":"289.0831","SITE":"AFETR","SEMIMAJOR_AXIS":"6925.366","APOAPSIS":"548.115","COUNTRY_CODE":"US","EPHEMERIS_TYPE":"0","PERIAPSIS":"546.347"},{"REV_AT_EPOCH":"6161","MEAN_MOTION_DOT":"0.00093209","DECAY_DATE":null,"TLE_LINE2":"2 46728  53.0534  40.2136 0004327  45.4890 314.6475 15.59926414 61611","RCS_SIZE":"LARGE","ELEMENT_SET_NO":"999","RA_OF_ASC_NODE":"40.2136","MEAN_MOTION_DDOT":"0.0000000000000","TLE_LINE1":"1 46728U 20073BL  21329.58858842  .00093209  00000-0  11283-2 0  9994","OBJECT_NAME":"STARLINK-1831","REF_FRAME":"TEME","ECCENTRICITY":"0.00043270","ARG_OF_PERICENTER":"45.4890","BSTAR":"0.00112830000000","FILE":"3224126","CENTER_NAME":"EARTH","MEAN_MOTION":"15.59926414","MEAN_ANOMALY":"314.6475","OBJECT_ID":"2020-073BL","OBJECT_TYPE":"PAYLOAD","PERIOD":"92.312","GP_ID":"190493327","INCLINATION":"53.0534","CLASSIFICATION_TYPE":"U","EPOCH":"2021-11-25T14:07:34.039488","MEAN_ELEMENT_THEORY":"SGP4","LAUNCH_DATE":"2020-10-18","TIME_SYSTEM":"UTC","NORAD_CAT_ID":"46728","PERIAPSIS":"384.944","COUNTRY_CODE":"US","EPHEMERIS_TYPE":"0","SEMIMAJOR_AXIS":"6766.007","SITE":"AFETR","APOAPSIS":"390.800"},{"PERIAPSIS":"545.872","COUNTRY_CODE":"US","EPHEMERIS_TYPE":"0","SEMIMAJOR_AXIS":"6925.351","SITE":"AFETR","APOAPSIS":"548.560","CENTER_NAME":"EARTH","MEAN_MOTION":"15.06399290","MEAN_ANOMALY":"276.1704","OBJECT_ID":"2020-074B","OBJECT_TYPE":"PAYLOAD","PERIOD":"95.592","GP_ID":"190494077","INCLINATION":"53.0551","CLASSIFICATION_TYPE":"U","EPOCH":"2021-11-25T19:02:26.899296","MEAN_ELEMENT_THEORY":"SGP4","LAUNCH_DATE":"2020-10-24","TIME_SYSTEM":"UTC","NORAD_CAT_ID":"46740","OBJECT_NAME":"STARLINK-1848","REF_FRAME":"TEME","ECCENTRICITY":"0.00019410","ARG_OF_PERICENTER":"83.9506","BSTAR":"0.00010809000000","FILE":"3224126","REV_AT_EPOCH":"6073","MEAN_MOTION_DOT":"0.00001329","DECAY_DATE":null,"TLE_LINE2":"2 46740  53.0551 151.7185 0001941  83.9506 276.1704 15.06399290 60733","RA_OF_ASC_NODE":"151.7185","RCS_SIZE":"LARGE","ELEMENT_SET_NO":"999","MEAN_MOTION_DDOT":"0.0000000000000","TLE_LINE1":"1 46740U 20074B   21329.79336689  .00001329  00000-0  10809-3 0  9998"},{"MEAN_MOTION":"15.06403112","MEAN_ANOMALY":"279.4886","CENTER_NAME":"EARTH","OBJECT_TYPE":"PAYLOAD","OBJECT_ID":"2020-074C","CLASSIFICATION_TYPE":"U","GP_ID":"190492825","PERIOD":"95.592","INCLINATION":"53.0534","TIME_SYSTEM":"UTC","NORAD_CAT_ID":"46741","EPOCH":"2021-11-25T14:40:21.472896","MEAN_ELEMENT_THEORY":"SGP4","LAUNCH_DATE":"2020-10-24","PERIAPSIS":"545.816","EPHEMERIS_TYPE":"0","COUNTRY_CODE":"US","SITE":"AFETR","SEMIMAJOR_AXIS":"6925.339","APOAPSIS":"548.592","MEAN_MOTION_DOT":"0.00000800","REV_AT_EPOCH":"6078","DECAY_DATE":null,"MEAN_MOTION_DDOT":"0.0000000000000","TLE_LINE2":"2 46741  53.0534 147.5309 0002004  80.6330 279.4886 15.06403112 60787","RCS_SIZE":"LARGE","RA_OF_ASC_NODE":"147.5309","ELEMENT_SET_NO":"999","TLE_LINE1":"1 46741U 20074C   21329.61135964  .00000800  00000-0  72633-4 0  9990","REF_FRAME":"TEME","OBJECT_NAME":"STARLINK-1865","ECCENTRICITY":"0.00020040","ARG_OF_PERICENTER":"80.6330","FILE":"3224126","BSTAR":"0.00007263300000"},{"COUNTRY_CODE":"US","EPHEMERIS_TYPE":"0","PERIAPSIS":"545.882","APOAPSIS":"548.532","SITE":"AFETR","SEMIMAJOR_AXIS":"6925.342","OBJECT_ID":"2020-074D","OBJECT_TYPE":"PAYLOAD","CENTER_NAME":"EARTH","MEAN_ANOMALY":"270.6524","MEAN_MOTION":"15.06402094","MEAN_ELEMENT_THEORY":"SGP4","LAUNCH_DATE":"2020-10-24","EPOCH":"2021-11-25T18:44:30.264576","NORAD_CAT_ID":"46742","TIME_SYSTEM":"UTC","INCLINATION":"53.0541","PERIOD":"95.592","GP_ID":"190493075","CLASSIFICATION_TYPE":"U","ECCENTRICITY":"0.00019130","OBJECT_NAME":"STARLINK-1872","REF_FRAME":"TEME","BSTAR":"0.00005733200000","FILE":"3224126","ARG_OF_PERICENTER":"89.4684","DECAY_DATE":null,"MEAN_MOTION_DOT":"0.00000572","REV_AT_EPOCH":"6080","TLE_LINE1":"1 46742U 20074D   21329.78090584  .00000572  00000-0  57332-4 0  9992","RCS_SIZE":"LARGE","RA_OF_ASC_NODE":"146.7568","ELEMENT_SET_NO":"999","TLE_LINE2":"2 46742  53.0541 146.7568 0001913  89.4684 270.6524 15.06402094 60804","MEAN_MOTION_DDOT":"0.0000000000000"},{"DECAY_DATE":null,"MEAN_MOTION_DOT":"0.00001163","REV_AT_EPOCH":"6081","TLE_LINE1":"1 46743U 20074E   21329.80304635  .00001163  00000-0  97110-4 0  9996","MEAN_MOTION_DDOT":"0.0000000000000","ELEMENT_SET_NO":"999","RCS_SIZE":"LARGE","RA_OF_ASC_NODE":"146.6646","TLE_LINE2":"2 46743  53.0530 146.6646 0005909  86.5946 273.5719 15.06391100 60811","ECCENTRICITY":"0.00059090","REF_FRAME":"TEME","OBJECT_NAME":"STARLINK-1892","FILE":"3224126","BSTAR":"0.00009711000000","ARG_OF_PERICENTER":"86.5946","OBJECT_ID":"2020-074E","OBJECT_TYPE":"PAYLOAD","MEAN_ANOMALY":"273.5719","MEAN_MOTION":"15.06391100","CENTER_NAME":"EARTH","NORAD_CAT_ID":"46743","TIME_SYSTEM":"UTC","MEAN_ELEMENT_THEORY":"SGP4","LAUNCH_DATE":"2020-10-24","EPOCH":"2021-11-25T19:16:23.204640","CLASSIFICATION_TYPE":"U","INCLINATION":"53.0530","GP_ID":"190493328","PERIOD":"95.593","EPHEMERIS_TYPE":"0","COUNTRY_CODE":"US","PERIAPSIS":"543.149","APOAPSIS":"551.333","SITE":"AFETR","SEMIMAJOR_AXIS":"6925.376"},{"SITE":"AFETR","SEMIMAJOR_AXIS":"6925.401","APOAPSIS":"548.619","PERIAPSIS":"545.913","EPHEMERIS_TYPE":"0","COUNTRY_CODE":"US","CLASSIFICATION_TYPE":"U","GP_ID":"190493579","PERIOD":"95.593","INCLINATION":"53.0525","TIME_SYSTEM":"UTC","NORAD_CAT_ID":"46744","EPOCH":"2021-11-25T18:07:22.468224","MEAN_ELEMENT_THEORY":"SGP4","LAUNCH_DATE":"2020-10-24","MEAN_MOTION":"15.06382851","MEAN_ANOMALY":"281.0888","CENTER_NAME":"EARTH","OBJECT_TYPE":"PAYLOAD","OBJECT_ID":"2020-074F","ARG_OF_PERICENTER":"79.0320","FILE":"3224126","BSTAR":"0.00005477900000","REF_FRAME":"TEME","OBJECT_NAME":"STARLINK-1894","ECCENTRICITY":"0.00019540","MEAN_MOTION_DDOT":"0.0000000000000","TLE_LINE2":"2 46744  53.0525 146.8769 0001954  79.0320 281.0888 15.06382851 60806","RA_OF_ASC_NODE":"146.8769","RCS_SIZE":"LARGE","ELEMENT_SET_NO":"999","TLE_LINE1":"1 46744U 20074F   21329.75512116  .00000534  00000-0  54779-4 0  9991","REV_AT_EPOCH":"6080","MEAN_MOTION_DOT":"0.00000534","DECAY_DATE":null}];
